NUSAT-1 (FRESCO)        
1 41557U 16033B   22018.22223712  .00007959  00000+0  26690-3 0  9994
2 41557  97.3913 116.1501 0012032 185.3752 258.4314 15.31101588314378
BEESAT-4                
1 41619U 16040W   22017.71954122  .00007224  00000+0  27302-3 0  9996
2 41619  97.2416  72.6469 0008675 297.2558  62.7797 15.27242559297693
CAS-2T & KS-1Q          
1 41847U 16066G   22017.88607790  .00000440  00000+0  77374-4 0  9999
2 41847  98.5735  82.5904 0363729 300.1331  56.4272 14.38326404272701
NAYIF-1 (EO-88)         
1 42017U 17008BX  22017.89296922  .00008725  00000+0  30130-3 0  9990
2 42017  97.2917  86.5770 0007125  71.9993 288.2023 15.30158133274027
ZHUHAI-1 02 (CAS-4B)    
1 42759U 17034B   22018.21862488  .00002205  00000+0  14382-3 0  9993
2 42759  43.0179  79.9867 0007282  57.0925  45.7257 15.10737125253626
ZHUHAI-1 01 (CAS-4A)    
1 42761U 17034D   22018.25370366  .00002092  00000+0  13677-3 0  9999
2 42761  43.0179  78.6923 0006965  67.2457 343.3409 15.10823767253633
MAX VALIER SAT          
1 42778U 17036P   22017.86810784  .00004928  00000+0  20171-3 0  9995
2 42778  97.2283  64.2263 0012776 133.9241 226.3054 15.24690026253940
RADFXSAT (FOX-1B)       
1 43017U 17073E   22017.95155456  .00003672  00000+0  28510-3 0  9991
2 43017  97.6920 278.2734 0251907 320.4175  37.8877 14.80199062224849
FOX-1D (AO-92)          
1 43137U 18004AC  22017.85090235  .00005732  00000+0  22176-3 0  9992
2 43137  97.3870  94.5932 0008673 164.6964 195.4539 15.26564672223351
DIWATA-2B               
1 43678U 18084H   22018.09053976  .00000158  00000+0  21393-4 0  9996
2 43678  97.9479 149.8567 0011305  65.6338 294.6048 14.91881392175435
ES'HAIL 2               
1 43700U 18090A   22017.96743388  .00000156  00000+0  00000+0 0  9992
2 43700   0.0183  50.7968 0002202 276.5052 164.1010  1.00271231 11525
FOX-1CLIFF (AO-95)      
1 43770U 18099N   22017.82996271  .00001196  00000+0  11234-3 0  9994
2 43770  97.6419  88.0329 0015701  63.2300 297.0526 14.95680640170492
ITASAT 1                
1 43786U 18099AE  22017.77676988  .00000916  00000+0  86711-4 0  9997
2 43786  97.6439  88.8070 0016144  56.5724 303.7039 14.95924369170526
JY1SAT (JO-97)          
1 43803U 18099AX  22017.90154084  .00001249  00000+0  11548-3 0  9995
2 43803  97.6403  88.6658 0016120  55.6275 304.6468 14.96249746170551
UWE-4                   
1 43880U 18111E   22017.87371596  .00001837  00000+0  16325-3 0  9991
2 43880  97.6779 286.8308 0013423 104.3696 255.9017 14.97273070167167
NEXUS (FO-99)           
1 43937U 19003F   22017.82330273  .00006897  00000+0  25898-3 0  9993
2 43937  97.1510  57.2653 0021415 335.7198  24.3031 15.27286496166969
PSAT2 (NO-104)          
1 44354U 19036R   22017.99115193  .00033120  00000+0  38892-3 0  9990
2 44354  28.5249 127.5667 0290441  96.9736 266.3982 15.22989145141598
BRICSAT2 (NO-103)       
1 44355U 19036S   22018.13542698  .00127610 -27167-5  90683-3 0  9996
2 44355  28.5258  33.7002 0178328 249.2500 108.8910 15.53922724142542
JAISAT-1                
1 44419U 19038F   22018.14281855  .00005252  00000+0  28469-3 0  9995
2 44419  97.6177 347.5425 0018848 294.0273  65.8986 15.14880384140286
DUCHIFAT-3              
1 44854U 19089C   22018.04854266  .00002099  00000+0  17185-3 0  9994
2 44854  36.9656 271.1886 0006594  70.5017 289.6547 14.99987458115337
CAS-6 (TO-108)          
1 44881U 19093C   22018.11157800  .00000241  00000+0  37378-4 0  9991
2 44881  97.9081  99.4142 0014098 320.1506  39.8687 14.81542678112516
RS-44 & BREEZE-KM R/B   
1 44909U 19096E   22018.15903171  .00000007  00000+0 -95906-5 0  9992
2 44909  82.5238 330.1442 0216676 311.3767  46.8877 12.79712047 96330
ORBITAL FACTORY 2 (OF-2)
1 45113U 19071C   22017.84938106  .00011864  00000+0  31533-3 0  9990
2 45113  51.6412  76.1616 0011158 352.1681   7.9127 15.38626487110147
HUSKYSAT-1 (HO-107)     
1 45119U 19071J   22017.87004028  .00010426  00000+0  28033-3 0  9990
2 45119  51.6414  75.5354 0010665 348.8520  11.2226 15.38419652110145
BY70-2                  
1 45857U 20042B   22018.13925329  .00003047  00000+0  43023-3 0  9992
2 45857  97.9695  96.5913 0010019 235.4357 124.5981 14.77892792 83242
SALSAT                  
1 46495U 20068K   22017.88156175  .00001148  00000+0  87804-4 0  9991
2 46495  97.7139 319.3694 0018903  69.1289 291.1962 15.03790324 71559
BY70-3                  
1 46839U 20079N   22018.21989733  .00012821  00000+0  36516-3 0  9990
2 46839  97.2205  92.8538 0007550 143.3179 301.4525 15.36201328 67146
RADFXSAT-2 (AO-109)     
1 47311U 21002C   22017.89445272  .00005060  00000+0  22402-3 0  9997
2 47311  60.6840 207.8476 0027969 159.2924 200.9303 15.22824954 55516
UVSQ-SAT                
1 47438U 21006AB  22017.72774924  .00003869  00000+0  21660-3 0  9992
2 47438  97.4607  79.8671 0013975  79.4788 280.8017 15.13938140 54467
DIY-1 (ARDUIQUBE)       
1 47963U 21022AH  22017.89021449  .00008713  00000+0  55158-3 0  9990
2 47963  97.5453 281.4341 0017397 294.6314  65.3102 15.09093149 44212
XW-3 (CAS-9)            
1 50466U 21131B   22018.13406363  .00000034  00000+0  25700-4 0  9992
2 50466  98.5964  95.3793 0003814 222.7352 137.3558 14.38436187  3302
